STARLINK-31569          
1 59857U 24097Y   26195.52382809 -.00005512  00000+0 -19080-3 0  9991
2 59857  43.0032 278.1370 0001492 250.2761 109.7930 15.27599215121318
STARLINK-31654          
1 59858U 24098A   26195.48449969 -.00001225  00000+0 -34986-4 0  9999
2 59858  43.0011 274.5005 0001400 266.2005  93.8686 15.27585199121315
STARLINK-31442          
1 59859U 24098B   26195.29601960 -.00000491  00000+0 -83105-5 0  9992
2 59859  42.9977 286.8852 0001927 164.5511 195.5400 15.27575470121165
STARLINK-31651          
1 59860U 24098C   26195.52208041  .00000101  00000+0  13186-4 0  9990
2 59860  43.0022 281.7087 0001454 271.7353  88.3332 15.27572018121241
STARLINK-31584          
1 59862U 24098E   26195.51179820 -.00000640  00000+0 -13728-4 0  9995
2 59862  43.0028 281.6351 0001719 275.1020  84.9635 15.27573252121244
STARLINK-31950          
1 59863U 24098F   26195.52980734 -.00002120  00000+0 -67565-4 0  9994
2 59863  43.0034 281.7654 0001671 276.6989  83.3673 15.27563071121249
STARLINK-31931          
1 59864U 24098G   26195.54778298 -.00001556  00000+0 -47009-4 0  9990
2 59864  43.0036 281.8989 0001802 283.2640  76.8010 15.27578628121244
STARLINK-31938          
1 59865U 24098H   26195.30536055 -.00010704  00000+0 -37970-3 0  9998
2 59865  43.0027 282.6543 0001908 284.1279  75.9360 15.27604840121216
STARLINK-31941          
1 59866U 24098J   26195.25517794 -.00000525  00000+0 -95616-5 0  9995
2 59866  43.0033 265.4765 0001626 264.7022  95.3644 15.27578118121406
STARLINK-31952          
1 59867U 24098K   26195.53364067 -.00000115  00000+0  53285-5 0  9990
2 59867  43.0008 281.7910 0000713 266.1674  93.9096 15.27573086121243
STARLINK-31921          
1 59868U 24098L   26195.48854421 -.00001852  00000+0 -57810-4 0  9990
2 59868  42.9999 241.5482 0000797 296.9438  63.1333 15.27570793121694
STARLINK-31760          
1 59869U 24098M   26195.54392282 -.00000554  00000+0 -10616-4 0  9991
2 59869  43.0022 281.8681 0001278 266.6636  93.4070 15.27574088121247
STARLINK-31945          
1 59870U 24098N   26195.28142394 -.00000639  00000+0 -13710-4 0  9993
2 59870  43.0000 279.0075 0001176 190.0496 170.0332 15.27573585121257
STARLINK-31937          
1 59871U 24098P   26195.25892605 -.00000337  00000+0 -27272-5 0  9992
2 59871  43.0007 276.2466 0001254 269.4484  90.6224 15.27574942121281
STARLINK-31940          
1 59873U 24098R   26195.20881367  .00000173  00000+0  15794-4 0  9993
2 59873  42.9991 275.8631 0001013 198.4883 161.5932 15.27575628121285
STARLINK-31933          
1 59874U 24098S   26195.51822319 -.00000342  00000+0 -29159-5 0  9991
2 59874  43.0011 281.6780 0001316 263.6221  96.4481 15.27573776121241
STARLINK-31936          
1 59875U 24098T   26195.45314346 -.00000160  00000+0  37185-5 0  9996
2 59875  43.0020 249.7729 0001210 272.2390  87.8323 15.27575703121595
STARLINK-31935          
1 59876U 24098U   26195.54007024 -.00001426  00000+0 -42306-4 0  9996
2 59876  43.0019 281.8385 0001388 281.4800  78.5896 15.27571503121241
STARLINK-31934          
1 59877U 24098V   26195.50328739 -.00000546  00000+0 -10315-4 0  9999
2 59877  43.0019 278.1023 0001896 279.0506  81.0131 15.27574052121287
STARLINK-31943          
1 59878U 24098W   26195.28676312  .00089849  00000+0  15293-2 0  9997
2 59878  42.9975 274.6840 0021540  15.7015 344.4509 15.50149157120658
STARLINK-31926          
1 59879U 24098X   26195.47991073 -.00001084  00000+0 -29868-4 0  9995
2 59879  43.0024 271.4494 0001317 260.1234  99.9469 15.27577613121356
STARLINK-31919          
1 59880U 24098Y   26195.52593568 -.00001406  00000+0 -41578-4 0  9990
2 59880  43.0024 281.7322 0001422 267.5864  92.4825 15.27576562121243
STARLINK-31974          
1 59885U 24100A   26194.21032990  .00000115  00000+0  13696-4 0  9995
2 59885  43.0003 136.5255 0000621 262.8434  97.2347 15.27577726120253
STARLINK-31975          
1 59886U 24100B   26195.52063103  .00000181  00000+0  16086-4 0  9990
2 59886  43.0024 129.1598 0001073 273.1258  86.9471 15.27575640120555
STARLINK-31976          
1 59887U 24100C   26195.55611814 -.00000154  00000+0  39362-5 0  9996
2 59887  43.0028 132.8572 0001108 258.4498 101.6229 15.27579694120519
STARLINK-31965          
1 59888U 24100D   26195.53219343  .00008092  00000+0  30325-3 0  9992
2 59888  43.0011 129.2471 0001022 281.7187  78.3550 15.27581341120451
STARLINK-31969          
1 59889U 24100E   26195.51597777 -.00000431  00000+0 -61557-5 0  9995
2 59889  43.0015 125.6714 0000512 280.0680  80.0114 15.27574596120594
STARLINK-31951          
1 59890U 24100F   26195.50264255 -.00000585  00000+0 -11736-4 0  9991
2 59890  42.9999 129.0204 0000635 270.3056  89.7722 15.27576118120450
STARLINK-31949          
1 59891U 24100G   26195.51421022  .00001151  00000+0  51355-4 0  9999
2 59891  43.0000 129.1014 0000997 279.3945  80.6794 15.27566573120456
STARLINK-31977          
1 59892U 24100H   26195.49462328 -.00010137  00000+0 -35888-3 0  9999
2 59892  43.0029 122.0381 0002182 268.4224  91.6378 15.27619056120639
