OBJECT_NAME,OBJECT_ID,EPOCH,MEAN_MOTION,ECCENTRICITY,INCLINATION,RA_OF_ASC_NODE,ARG_OF_PERICENTER,MEAN_ANOMALY,EPHEMERIS_TYPE,CLASSIFICATION_TYPE,NORAD_CAT_ID,ELEMENT_SET_NO,REV_AT_EPOCH,BSTAR,MEAN_MOTION_DOT,MEAN_MOTION_DDOT
STARLINK-31569,2024-097Y,2026-07-14T12:34:18.746976,15.27599215,.00014929,43.0032,278.1370,250.2761,109.7930,0,U,59857,999,12131,-.19079694E-3,-.5512E-4,0
STARLINK-31654,2024-098A,2026-07-14T11:37:40.773216,15.27585199,.00014007,43.0011,274.5005,266.2005,93.8686,0,U,59858,999,12131,-.34986327E-4,-.1225E-4,0
STARLINK-31442,2024-098B,2026-07-14T07:06:16.093440,15.27575470,.00019271,42.9977,286.8852,164.5511,195.5400,0,U,59859,999,12116,-.8310521E-5,-.491E-5,0
STARLINK-31651,2024-098C,2026-07-14T12:31:47.747424,15.27572018,.0001454,43.0022,281.7087,271.7353,88.3332,0,U,59860,999,12124,.13186003E-4,.101E-5,0
STARLINK-31584,2024-098E,2026-07-14T12:16:59.364480,15.27573252,.00017199,43.0028,281.6351,275.1020,84.9635,0,U,59862,999,12124,-.13727586E-4,-.64E-5,0
STARLINK-31950,2024-098F,2026-07-14T12:42:55.354176,15.27563071,.00016715,43.0034,281.7654,276.6989,83.3673,0,U,59863,999,12124,-.67565078E-4,-.212E-4,0
STARLINK-31931,2024-098G,2026-07-14T13:08:48.449472,15.27578628,.00018027,43.0036,281.8989,283.2640,76.8010,0,U,59864,999,12124,-.47008858E-4,-.1556E-4,0
STARLINK-31938,2024-098H,2026-07-14T07:19:43.151520,15.27604840,.00019082,43.0027,282.6543,284.1279,75.9360,0,U,59865,999,12121,-.37970029E-3,-.10704E-3,0
STARLINK-31941,2024-098J,2026-07-14T06:07:27.374016,15.27578118,.00016263,43.0033,265.4765,264.7022,95.3644,0,U,59866,999,12140,-.9561572E-5,-.525E-5,0
STARLINK-31952,2024-098K,2026-07-14T12:48:26.553888,15.27573086,.00007131,43.0008,281.7910,266.1674,93.9096,0,U,59867,999,12124,.5328506E-5,-.115E-5,0
STARLINK-31921,2024-098L,2026-07-14T11:43:30.219744,15.27570793,.00007971,42.9999,241.5482,296.9438,63.1333,0,U,59868,999,12169,-.57809507E-4,-.1852E-4,0
STARLINK-31760,2024-098M,2026-07-14T13:03:14.931648,15.27574088,.00012789,43.0022,281.8681,266.6636,93.4070,0,U,59869,999,12124,-.10615663E-4,-.554E-5,0
STARLINK-31945,2024-098N,2026-07-14T06:45:15.028416,15.27573585,.00011764,43.0000,279.0075,190.0496,170.0332,0,U,59870,999,12125,-.13709815E-4,-.639E-5,0
STARLINK-31937,2024-098P,2026-07-14T06:12:51.210720,15.27574942,.00012549,43.0007,276.2466,269.4484,90.6224,0,U,59871,999,12128,-.2727179E-5,-.337E-5,0
STARLINK-31940,2024-098R,2026-07-14T05:00:41.501088,15.27575628,.00010136,42.9991,275.8631,198.4883,161.5932,0,U,59873,999,12128,.15793611E-4,.173E-5,0
STARLINK-31933,2024-098S,2026-07-14T12:26:14.483616,15.27573776,.00013168,43.0011,281.6780,263.6221,96.4481,0,U,59874,999,12124,-.2915903E-5,-.342E-5,0
STARLINK-31936,2024-098T,2026-07-14T10:52:31.594944,15.27575703,.00012108,43.0020,249.7729,272.2390,87.8323,0,U,59875,999,12159,.3718465E-5,-.16E-5,0
STARLINK-31935,2024-098U,2026-07-14T12:57:42.068736,15.27571503,.00013888,43.0019,281.8385,281.4800,78.5896,0,U,59876,999,12124,-.42305746E-4,-.1426E-4,0
STARLINK-31934,2024-098V,2026-07-14T12:04:44.030496,15.27574052,.00018961,43.0019,278.1023,279.0506,81.0131,0,U,59877,999,12128,-.10314835E-4,-.546E-5,0
STARLINK-31943,2024-098W,2026-07-14T06:52:56.333568,15.50149157,.00215405,42.9975,274.6840,15.7015,344.4509,0,U,59878,999,12065,.15293216E-2,.89849E-3,0
STARLINK-31926,2024-098X,2026-07-14T11:31:04.287072,15.27577613,.00013177,43.0024,271.4494,260.1234,99.9469,0,U,59879,999,12135,-.29867569E-4,-.1084E-4,0
STARLINK-31919,2024-098Y,2026-07-14T12:37:20.842752,15.27576562,.00014228,43.0024,281.7322,267.5864,92.4825,0,U,59880,999,12124,-.41578253E-4,-.1406E-4,0
STARLINK-31974,2024-100A,2026-07-13T05:02:52.503360,15.27577726,.0000621,43.0003,136.5255,262.8434,97.2347,0,U,59885,999,12025,.13696E-4,.115E-5,0
STARLINK-31975,2024-100B,2026-07-14T12:29:42.520992,15.27575640,.00010738,43.0024,129.1598,273.1258,86.9471,0,U,59886,999,12055,.16086275E-4,.181E-5,0
STARLINK-31976,2024-100C,2026-07-14T13:20:48.607296,15.27579694,.00011089,43.0028,132.8572,258.4498,101.6229,0,U,59887,999,12051,.3936188E-5,-.154E-5,0
STARLINK-31965,2024-100D,2026-07-14T12:46:21.512352,15.27581341,.00010227,43.0011,129.2471,281.7187,78.3550,0,U,59888,999,12045,.30324975E-3,.8092E-4,0
STARLINK-31969,2024-100E,2026-07-14T12:23:00.479328,15.27574596,.00005129,43.0015,125.6714,280.0680,80.0114,0,U,59889,999,12059,-.615571E-5,-.431E-5,0
STARLINK-31951,2024-100F,2026-07-14T12:03:48.316320,15.27576118,.00006351,42.9999,129.0204,270.3056,89.7722,0,U,59890,999,12045,-.11736036E-4,-.585E-5,0
STARLINK-31949,2024-100G,2026-07-14T12:20:27.763008,15.27566573,.00009979,43.0000,129.1014,279.3945,80.6794,0,U,59891,999,12045,.51355097E-4,.1151E-4,0
STARLINK-31977,2024-100H,2026-07-14T11:52:15.451392,15.27619056,.0002182,43.0029,122.0381,268.4224,91.6378,0,U,59892,999,12063,-.35888054E-3,-.10137E-3,0
